CCSDS_OMM_VERS = 2.0
CREATION_DATE  = 
ORIGINATOR     = 

OBJECT_NAME    = SL-14 R/B
OBJECT_ID      = 1991-042B
CENTER_NAME    = EARTH
REF_FRAME      = TEME
TIME_SYSTEM    = UTC
MEAN_ELEMENT_THEORY = SGP/SGP4

EPOCH          = 2026-02-27T21:34:28.247520
MEAN_MOTION    = 14.81817662
ECCENTRICITY   = .00155639
INCLINATION    = 82.4907
RA_OF_ASC_NODE = 229.3644
ARG_OF_PERICENTER = 273.7305
MEAN_ANOMALY   = 86.2129

EPHEMERIS_TYPE = 0
CLASSIFICATION_TYPE = U
NORAD_CAT_ID   = 21423
ELEMENT_SET_NO = 999
REV_AT_EPOCH   = 85162
BSTAR          = .61874021E-4
MEAN_MOTION_DOT = .512E-5
MEAN_MOTION_DDOT = 0

CCSDS_OMM_VERS = 2.0
CREATION_DATE  = 
ORIGINATOR     = 

OBJECT_NAME    = ERS-1
OBJECT_ID      = 1991-050A
CENTER_NAME    = EARTH
REF_FRAME      = TEME
TIME_SYSTEM    = UTC
MEAN_ELEMENT_THEORY = SGP/SGP4

EPOCH          = 2026-02-27T23:10:41.821248
MEAN_MOTION    = 14.39440429
ECCENTRICITY   = .00311355
INCLINATION    = 98.7888
RA_OF_ASC_NODE = 76.9559
ARG_OF_PERICENTER = 229.8076
MEAN_ANOMALY   = 130.0385

EPHEMERIS_TYPE = 0
CLASSIFICATION_TYPE = U
NORAD_CAT_ID   = 21574
ELEMENT_SET_NO = 999
REV_AT_EPOCH   = 81433
BSTAR          = .12519082E-3
MEAN_MOTION_DOT = .345E-5
MEAN_MOTION_DDOT = 0

CCSDS_OMM_VERS = 2.0
CREATION_DATE  = 
ORIGINATOR     = 

OBJECT_NAME    = ARIANE 40 R/B
OBJECT_ID      = 1991-050F
CENTER_NAME    = EARTH
REF_FRAME      = TEME
TIME_SYSTEM    = UTC
MEAN_ELEMENT_THEORY = SGP/SGP4

EPOCH          = 2026-02-27T21:37:39.560448
MEAN_MOTION    = 14.42885229
ECCENTRICITY   = .00043834
INCLINATION    = 98.2034
RA_OF_ASC_NODE = 111.5041
ARG_OF_PERICENTER = 102.3789
MEAN_ANOMALY   = 257.7893

EPHEMERIS_TYPE = 0
CLASSIFICATION_TYPE = U
NORAD_CAT_ID   = 21610
ELEMENT_SET_NO = 999
REV_AT_EPOCH   = 81758
BSTAR          = .10461024E-3
MEAN_MOTION_DOT = .308E-5
MEAN_MOTION_DDOT = 0

CCSDS_OMM_VERS = 2.0
CREATION_DATE  = 
ORIGINATOR     = 

OBJECT_NAME    = INTERCOSMOS 25
OBJECT_ID      = 1991-086A
CENTER_NAME    = EARTH
REF_FRAME      = TEME
TIME_SYSTEM    = UTC
MEAN_ELEMENT_THEORY = SGP/SGP4

EPOCH          = 2026-02-27T20:00:10.383264
MEAN_MOTION    = 12.11967057
ECCENTRICITY   = .14870897
INCLINATION    = 82.6069
RA_OF_ASC_NODE = 315.9646
ARG_OF_PERICENTER = 138.1660
MEAN_ANOMALY   = 234.3275

EPHEMERIS_TYPE = 0
CLASSIFICATION_TYPE = U
NORAD_CAT_ID   = 21819
ELEMENT_SET_NO = 999
REV_AT_EPOCH   = 49549
BSTAR          = .29892998E-3
MEAN_MOTION_DOT = .1557E-4
MEAN_MOTION_DDOT = 0

CCSDS_OMM_VERS = 2.0
CREATION_DATE  = 
ORIGINATOR     = 

OBJECT_NAME    = SL-8 R/B
OBJECT_ID      = 1992-008B
CENTER_NAME    = EARTH
REF_FRAME      = TEME
TIME_SYSTEM    = UTC
MEAN_ELEMENT_THEORY = SGP/SGP4

EPOCH          = 2026-02-27T21:28:42.434112
MEAN_MOTION    = 13.75969884
ECCENTRICITY   = .00350626
INCLINATION    = 82.9230
RA_OF_ASC_NODE = 275.0662
ARG_OF_PERICENTER = 160.0673
MEAN_ANOMALY   = 211.1816

EPHEMERIS_TYPE = 0
CLASSIFICATION_TYPE = U
NORAD_CAT_ID   = 21876
ELEMENT_SET_NO = 999
REV_AT_EPOCH   = 70807
BSTAR          = -.5656895E-5
MEAN_MOTION_DOT = .1E-6
MEAN_MOTION_DDOT = 0

CCSDS_OMM_VERS = 2.0
CREATION_DATE  = 
ORIGINATOR     = 

OBJECT_NAME    = SL-8 R/B
OBJECT_ID      = 1992-020B
CENTER_NAME    = EARTH
REF_FRAME      = TEME
TIME_SYSTEM    = UTC
MEAN_ELEMENT_THEORY = SGP/SGP4

EPOCH          = 2026-02-27T13:42:39.939840
MEAN_MOTION    = 13.75548137
ECCENTRICITY   = .00280883
INCLINATION    = 82.9343
RA_OF_ASC_NODE = 161.2718
ARG_OF_PERICENTER = 328.1770
MEAN_ANOMALY   = 42.6183

EPHEMERIS_TYPE = 0
CLASSIFICATION_TYPE = U
NORAD_CAT_ID   = 21938
ELEMENT_SET_NO = 999
REV_AT_EPOCH   = 69974
BSTAR          = .56025426E-4
MEAN_MOTION_DOT = .69E-6
MEAN_MOTION_DDOT = 0

CCSDS_OMM_VERS = 2.0
CREATION_DATE  = 
ORIGINATOR     = 

OBJECT_NAME    = USA 81
OBJECT_ID      = 1992-023A
CENTER_NAME    = EARTH
REF_FRAME      = TEME
TIME_SYSTEM    = UTC
MEAN_ELEMENT_THEORY = SGP/SGP4

EPOCH          = 2026-02-27T11:01:46.343424
MEAN_MOTION    = 14.32363966
ECCENTRICITY   = .00027107
INCLINATION    = 85.0105
RA_OF_ASC_NODE = 137.3417
ARG_OF_PERICENTER = 86.2863
MEAN_ANOMALY   = 273.8640

EPHEMERIS_TYPE = 0
CLASSIFICATION_TYPE = U
NORAD_CAT_ID   = 21949
ELEMENT_SET_NO = 999
REV_AT_EPOCH   = 9332
BSTAR          = .57734489E-4
MEAN_MOTION_DOT = .176E-5
MEAN_MOTION_DDOT = 0

CCSDS_OMM_VERS = 2.0
CREATION_DATE  = 
ORIGINATOR     = 

OBJECT_NAME    = COSMOS 2219
OBJECT_ID      = 1992-076A
CENTER_NAME    = EARTH
REF_FRAME      = TEME
TIME_SYSTEM    = UTC
MEAN_ELEMENT_THEORY = SGP/SGP4

EPOCH          = 2026-02-27T23:18:44.690976
MEAN_MOTION    = 14.14086361
ECCENTRICITY   = .00194649
INCLINATION    = 71.0607
RA_OF_ASC_NODE = 38.3827
ARG_OF_PERICENTER = 219.9999
MEAN_ANOMALY   = 139.9691

EPHEMERIS_TYPE = 0
CLASSIFICATION_TYPE = U
NORAD_CAT_ID   = 22219
ELEMENT_SET_NO = 999
REV_AT_EPOCH   = 71700
BSTAR          = .21572297E-3
MEAN_MOTION_DOT = .364E-5
MEAN_MOTION_DDOT = 0

CCSDS_OMM_VERS = 2.0
CREATION_DATE  = 
ORIGINATOR     = 

OBJECT_NAME    = SL-16 R/B
OBJECT_ID      = 1992-076B
CENTER_NAME    = EARTH
REF_FRAME      = TEME
TIME_SYSTEM    = UTC
MEAN_ELEMENT_THEORY = SGP/SGP4

EPOCH          = 2026-02-27T21:27:01.435968
MEAN_MOTION    = 14.16858401
ECCENTRICITY   = .00108025
INCLINATION    = 70.9992
RA_OF_ASC_NODE = 209.0069
ARG_OF_PERICENTER = 114.3559
MEAN_ANOMALY   = 0.5832

EPHEMERIS_TYPE = 0
CLASSIFICATION_TYPE = U
NORAD_CAT_ID   = 22220
ELEMENT_SET_NO = 999
REV_AT_EPOCH   = 72044
BSTAR          = .15613194E-3
MEAN_MOTION_DOT = .265E-5
MEAN_MOTION_DDOT = 0

CCSDS_OMM_VERS = 2.0
CREATION_DATE  = 
ORIGINATOR     = 

OBJECT_NAME    = COSMOS 2221
OBJECT_ID      = 1992-080A
CENTER_NAME    = EARTH
REF_FRAME      = TEME
TIME_SYSTEM    = UTC
MEAN_ELEMENT_THEORY = SGP/SGP4

EPOCH          = 2026-02-27T20:57:12.605184
MEAN_MOTION    = 14.96157085
ECCENTRICITY   = .00131925
INCLINATION    = 82.5025
RA_OF_ASC_NODE = 288.4852
ARG_OF_PERICENTER = 221.8967
MEAN_ANOMALY   = 138.1247

EPHEMERIS_TYPE = 0
CLASSIFICATION_TYPE = U
NORAD_CAT_ID   = 22236
ELEMENT_SET_NO = 999
REV_AT_EPOCH   = 77932
BSTAR          = .15872693E-3
MEAN_MOTION_DOT = .1815E-4
MEAN_MOTION_DDOT = 0

CCSDS_OMM_VERS = 2.0
CREATION_DATE  = 
ORIGINATOR     = 

OBJECT_NAME    = SL-16 R/B
OBJECT_ID      = 1992-093B
CENTER_NAME    = EARTH
REF_FRAME      = TEME
TIME_SYSTEM    = UTC
MEAN_ELEMENT_THEORY = SGP/SGP4

EPOCH          = 2026-02-27T21:59:33.275904
MEAN_MOTION    = 14.15449725
ECCENTRICITY   = .00061171
INCLINATION    = 71.0232
RA_OF_ASC_NODE = 24.7811
ARG_OF_PERICENTER = 304.2580
MEAN_ANOMALY   = 55.7963

EPHEMERIS_TYPE = 0
CLASSIFICATION_TYPE = U
NORAD_CAT_ID   = 22285
ELEMENT_SET_NO = 999
REV_AT_EPOCH   = 71177
BSTAR          = .23750411E-4
MEAN_MOTION_DOT = -.1E-7
MEAN_MOTION_DDOT = 0

CCSDS_OMM_VERS = 2.0
CREATION_DATE  = 
ORIGINATOR     = 

OBJECT_NAME    = COSMOS 2228
OBJECT_ID      = 1992-094A
CENTER_NAME    = EARTH
REF_FRAME      = TEME
TIME_SYSTEM    = UTC
MEAN_ELEMENT_THEORY = SGP/SGP4

EPOCH          = 2026-02-27T23:06:19.656864
MEAN_MOTION    = 14.97133762
ECCENTRICITY   = .00174371
INCLINATION    = 82.5146
RA_OF_ASC_NODE = 246.6256
ARG_OF_PERICENTER = 339.1619
MEAN_ANOMALY   = 20.8891

EPHEMERIS_TYPE = 0
CLASSIFICATION_TYPE = U
NORAD_CAT_ID   = 22286
ELEMENT_SET_NO = 999
REV_AT_EPOCH   = 77460
BSTAR          = .17815832E-3
MEAN_MOTION_DOT = .2088E-4
MEAN_MOTION_DDOT = 0

