SL-14 R/B               
1 21423U 91042B   26058.89893805  .00000512  00000+0  61874-4 0  9996
2 21423  82.4907 229.3644 0015563 273.7305  86.2129 14.81817662851625
ERS-1                   
1 21574U 91050A   26058.96576182  .00000345  00000+0  12519-3 0  9991
2 21574  98.7888  76.9559 0031135 229.8076 130.0385 14.39440429814336
ARIANE 40 R/B           
1 21610U 91050F   26058.90115232  .00000308  00000+0  10461-3 0  9994
2 21610  98.2034 111.5041 0004383 102.3789 257.7893 14.42885229817584
INTERCOSMOS 25          
1 21819U 91086A   26058.83345351  .00001557  00000+0  29893-3 0  9999
2 21819  82.6069 315.9646 1487089 138.1660 234.3275 12.11967057495496
SL-8 R/B                
1 21876U 92008B   26058.89493558  .00000010  00000+0 -56569-5 0  9992
2 21876  82.9230 275.0662 0035062 160.0673 211.1816 13.75969884708079
SL-8 R/B                
1 21938U 92020B   26058.57129560  .00000069  00000+0  56025-4 0  9998
2 21938  82.9343 161.2718 0028088 328.1770  42.6183 13.75548137699747
USA 81                  
1 21949U 92023A   26058.45956416  .00000176  00000+0  57734-4 0  9995
2 21949  85.0105 137.3417 0002710  86.2863 273.8640 14.32363966 93325
COSMOS 2219             
1 22219U 92076A   26058.97135059  .00000364  00000+0  21572-3 0  9992
2 22219  71.0607  38.3827 0019464 219.9999 139.9691 14.14086361717009
SL-16 R/B               
1 22220U 92076B   26058.89376662  .00000265  00000+0  15613-3 0  9991
2 22220  70.9992 209.0069 0010802 114.3559   0.5832 14.16858401720444
COSMOS 2221             
1 22236U 92080A   26058.87306256  .00001815  00000+0  15873-3 0  9993
2 22236  82.5025 288.4852 0013192 221.8967 138.1247 14.96157085779327
SL-16 R/B               
1 22285U 92093B   26058.91635736 -.00000001  00000+0  23750-4 0  9995
2 22285  71.0232  24.7811 0006117 304.2580  55.7963 14.15449725711776
COSMOS 2228             
1 22286U 92094A   26058.96272751  .00002088  00000+0  17816-3 0  9997
2 22286  82.5146 246.6256 0017437 339.1619  20.8891 14.97133762774608
